NORAD_CAT_ID,OBJECT_NAME,OBJECT_TYPE,EPOCH,MEAN_MOTION,ECCENTRICITY,INCLINATION,RA_OF_ASC_NODE,ARG_OF_PERICENTER,MEAN_ANOMALY,BSTAR,MEAN_MOTION_DOT,MEAN_MOTION_DDOT,TLE_LINE0,TLE_LINE1,TLE_LINE2,SEMIMAJOR_AXIS,PERIOD,APOGEE,PERIGEE,DECAYED
50804.0,STARLINK-3323,PAYLOAD,2024-02-11 21:30:24,15.08833415,0.0001642,53.2196,316.5052,73.0055,287.1117,6.8462e-05,8.02e-06,0.0,0 STARLINK-3323,1 50804U 22001B   24042.89611533  .00000802  00000-0  68462-4 0  9990,2 50804  53.2196 316.5052 0001642  73.0055 287.1117 15.08833415116294,6917.901,95.438,540.901,538.63,0.0
50804.0,STARLINK-3323,PAYLOAD,2024-02-12 03:51:55,15.08848997,0.0001887,53.2191,315.3048,114.5205,245.5984,5.5512e-05,5.96e-06,0.0,0 STARLINK-3323,1 50804U 22001B   24043.16106368  .00000596  00000-0  55512-4 0  9998,2 50804  53.2191 315.3048 0001887 114.5205 245.5984 15.08848997117584,6917.853,95.437,541.023,538.412,0.0
50804.0,STARLINK-3323,PAYLOAD,2024-02-12 18:10:25,15.08840491,0.0001663,53.2179,312.6321,106.4073,253.7102,-0.00011451,-2.11e-05,0.0,0 STARLINK-3323,1 50804U 22001B   24043.75723643 -.00002110  00000-0 -11451-3 0  9993,2 50804  53.2179 312.6321 0001663 106.4073 253.7102 15.08840491117673,6917.879,95.438,540.894,538.593,0.0
50804.0,STARLINK-3323,PAYLOAD,2024-02-12 22:56:32,15.08864972,0.0002215,53.2191,311.7405,131.0833,229.035,9.0475e-05,1.153e-05,0.0,0 STARLINK-3323,1 50804U 22001B   24043.95593253  .00001153  00000-0  90475-4 0  9995,2 50804  53.2191 311.7405 0002215 131.0833 229.0350 15.08864972116458,6917.804,95.436,541.201,538.137,0.0
50804.0,STARLINK-3323,PAYLOAD,2024-02-13 18:01:11,15.08845254,0.0001447,53.2173,308.1718,91.2097,268.9061,-2.0836e-05,-6.2e-06,0.0,0 STARLINK-3323,1 50804U 22001B   24044.75083045 -.00000620  00000-0 -20836-4 0  9991,2 50804  53.2173 308.1718 0001447  91.2097 268.9061 15.08845254117825,6917.864,95.437,540.73,538.728,0.0
50804.0,STARLINK-3323,PAYLOAD,2024-02-13 22:47:21,15.08837983,0.000157,53.2176,307.2774,109.8844,250.2317,-5.3748e-05,-1.143e-05,0.0,0 STARLINK-3323,1 50804U 22001B   24044.94955444 -.00001143  00000-0 -53748-4 0  9992,2 50804  53.2176 307.2774 0001570 109.8844 250.2317 15.08837983116606,6917.887,95.438,540.838,538.665,0.0
50804.0,STARLINK-3323,PAYLOAD,2024-02-14 00:22:44,15.08838803,0.0001234,53.2172,306.9843,80.3084,279.8048,-9.2351e-05,-1.757e-05,0.0,0 STARLINK-3323,1 50804U 22001B   24045.01579600 -.00001757  00000-0 -92351-4 0  9991,2 50804  53.2172 306.9843 0001234  80.3084 279.8048 15.08838803117860,6917.884,95.438,540.603,538.895,0.0
50804.0,STARLINK-3323,PAYLOAD,2024-02-14 09:55:03,15.08834988,0.0001217,53.2168,305.2,86.7435,273.3697,-5.2556e-05,-1.124e-05,0.0,0 STARLINK-3323,1 50804U 22001B   24045.41323876 -.00001124  00000-0 -52556-4 0  9998,2 50804  53.2168 305.2000 0001217  86.7435 273.3697 15.08834988116670,6917.896,95.438,540.603,538.919,0.0
50804.0,STARLINK-3323,PAYLOAD,2024-02-14 17:52:00,15.08830829,0.0001226,53.2195,303.7203,95.6309,264.4823,-0.0001479,-2.64e-05,0.0,0 STARLINK-3323,1 50804U 22001B   24045.74444994 -.00002640  00000-0 -14790-3 0  9990,2 50804  53.2195 303.7203 0001226  95.6309 264.4823 15.08830829117973,6917.908,95.438,540.622,538.925,0.0
50804.0,STARLINK-3323,PAYLOAD,2024-02-14 22:38:09,15.08833904,0.0001418,53.2193,302.826,104.3504,255.7645,-0.00013496,-2.435e-05,0.0,0 STARLINK-3323,1 50804U 22001B   24045.94316842 -.00002435  00000-0 -13496-3 0  9996,2 50804  53.2193 302.8260 0001418 104.3504 255.7645 15.08833904116759,6917.899,95.438,540.745,538.783,0.0
50804.0,STARLINK-3323,PAYLOAD,2024-02-15 00:13:32,15.08834201,0.0001303,53.2192,302.5296,101.9854,258.1284,-0.00011518,-2.12e-05,0.0,0 STARLINK-3323,1 50804U 22001B   24046.00940786 -.00002120  00000-0 -11518-3 0  9998,2 50804  53.2192 302.5296 0001303 101.9854 258.1284 15.08834201116766,6917.898,95.438,540.665,538.862,0.0
50804.0,STARLINK-3323,PAYLOAD,2024-02-15 22:28:56,15.08832728,0.00012,53.2168,298.3627,83.7568,276.356,0.00014649,2.044e-05,0.0,0 STARLINK-3323,1 50804U 22001B   24046.93676720  .00002044  00000-0  14649-3 0  9995,2 50804  53.2168 298.3627 0001200  83.7568 276.3560 15.08832728116901,6917.903,95.438,540.598,538.937,0.0
50804.0,STARLINK-3323,PAYLOAD,2024-02-16 01:39:42,15.08840638,0.0001325,53.2179,297.7699,94.7395,265.3748,0.00022101,3.231e-05,0.0,0 STARLINK-3323,1 50804U 22001B   24047.06924159  .00003231  00000-0  22101-3 0  9993,2 50804  53.2179 297.7699 0001325  94.7395 265.3748 15.08840638118179,6917.878,95.438,540.66,538.827,0.0
50804.0,STARLINK-3323,PAYLOAD,2024-02-16 09:36:38,15.08843547,0.0001274,53.2171,296.2808,76.5542,283.5592,0.00021799,3.183e-05,0.0,0 STARLINK-3323,1 50804U 22001B   24047.40044119  .00003183  00000-0  21799-3 0  9998,2 50804  53.2171 296.2808 0001274  76.5542 283.5592 15.08843547116979,6917.87,95.437,540.616,538.853,0.0
50804.0,STARLINK-3323,PAYLOAD,2024-02-16 22:19:43,15.08839983,0.0001527,53.2183,293.9028,83.3158,276.8008,0.00016835,2.392e-05,0.0,0 STARLINK-3323,1 50804U 22001B   24047.93036730  .00002392  00000-0  16835-3 0  9992,2 50804  53.2183 293.9028 0001527  83.3158 276.8008 15.08839983117056,6917.88,95.438,540.802,538.689,0.0
50804.0,STARLINK-3323,PAYLOAD,2024-02-16 23:55:06,15.08840536,0.0001484,53.2178,293.6043,83.5729,276.5432,0.00017426,2.487e-05,0.0,0 STARLINK-3323,1 50804U 22001B   24047.99660576  .00002487  00000-0  17426-3 0  9991,2 50804  53.2178 293.6043 0001484  83.5729 276.5432 15.08840536118316,6917.879,95.438,540.77,538.717,0.0
50804.0,STARLINK-3323,PAYLOAD,2024-02-17 09:27:25,15.08846492,0.0001444,53.2176,291.822,85.8349,274.2808,0.0001594,2.25e-05,0.0,0 STARLINK-3323,1 50804U 22001B   24048.39404236  .00002250  00000-0  15940-3 0  9992,2 50804  53.2176 291.8220 0001444  85.8349 274.2808 15.08846492117127,6917.861,95.437,540.724,538.727,0.0
50804.0,STARLINK-3323,PAYLOAD,2024-02-17 22:10:30,15.08851162,0.0001167,53.2156,289.4403,105.1927,254.9194,2.3936e-05,9.3e-07,0.0,0 STARLINK-3323,1 50804U 22001B   24048.92395964  .00000093  00000-0  23936-4 0  9996,2 50804  53.2156 289.4403 0001167 105.1927 254.9194 15.08851162117203,6917.846,95.437,540.519,538.904,0.0
50804.0,STARLINK-3323,PAYLOAD,2024-02-18 01:21:15,15.08856589,0.0001294,53.2169,288.8432,98.7186,261.3953,8.2737e-05,1.03e-05,0.0,0 STARLINK-3323,1 50804U 22001B   24049.05643408  .00001030  00000-0  82737-4 0  9996,2 50804  53.2169 288.8432 0001294  98.7186 261.3953 15.08856589118470,6917.83,95.437,540.59,538.8,0.0
50804.0,STARLINK-3323,PAYLOAD,2024-02-18 09:18:11,15.08850737,0.0001251,53.217,287.3574,97.5914,262.522,2.1695e-05,5.7e-07,0.0,0 STARLINK-3323,1 50804U 22001B   24049.38763691  .00000057  00000-0  21695-4 0  9993,2 50804  53.2170 287.3574 0001251  97.5914 262.5220 15.08850737118527,6917.848,95.437,540.578,538.847,0.0
50804.0,STARLINK-3323,PAYLOAD,2024-02-18 22:01:16,15.08846954,0.0001184,53.2158,284.9804,84.791,275.3218,8.6671e-05,1.092e-05,0.0,0 STARLINK-3323,1 50804U 22001B   24049.91755555  .00001092  00000-0  86671-4 0  9997,2 50804  53.2158 284.9804 0001184  84.7910 275.3218 15.08846954117356,6917.859,95.437,540.543,538.905,0.0
50804.0,STARLINK-3323,PAYLOAD,2024-02-19 09:08:59,15.08840618,0.0001463,53.2171,282.8967,102.2758,257.8398,-5.6926e-06,-3.79e-06,0.0,0 STARLINK-3323,1 50804U 22001B   24050.38123987 -.00000379  00000-0 -56926-5 0  9998,2 50804  53.2171 282.8967 0001463 102.2758 257.8398 15.08840618118675,6917.878,95.438,540.756,538.731,0.0
50804.0,STARLINK-3323,PAYLOAD,2024-02-19 21:52:04,15.08839715,0.000135,53.2173,280.5198,97.3847,262.7299,-9.1619e-05,-1.746e-05,0.0,0 STARLINK-3323,1 50804U 22001B   24050.91116318 -.00001746  00000-0 -91619-4 0  9993,2 50804  53.2173 280.5198 0001350  97.3847 262.7299 15.08839715117508,6917.881,95.438,540.68,538.812,0.0
50804.0,STARLINK-3323,PAYLOAD,2024-02-20 01:02:50,15.08840913,0.0001396,53.2173,279.9244,98.1838,261.9312,-6.968e-05,-1.397e-05,0.0,0 STARLINK-3323,1 50804U 22001B   24051.04364176 -.00001397  00000-0 -69680-4 0  9990,2 50804  53.2173 279.9244 0001396  98.1838 261.9312 15.08840913117522,6917.878,95.437,540.708,538.777,0.0
50804.0,STARLINK-3323,PAYLOAD,2024-02-20 18:32:05,15.08837168,0.0001436,53.2177,276.6533,98.6809,261.4346,6.1415e-05,6.9e-06,0.0,0 STARLINK-3323,1 50804U 22001B   24051.77228191  .00000690  00000-0  61415-4 0  9997,2 50804  53.2177 276.6533 0001436  98.6809 261.4346 15.08837168118889,6917.889,95.438,540.747,538.761,0.0
50804.0,STARLINK-3323,PAYLOAD,2024-02-20 21:42:51,15.08844465,0.00013,53.216,276.0591,91.4003,268.7138,3.9023e-05,3.33e-06,0.0,0 STARLINK-3323,1 50804U 22001B   24051.90475778  .00000333  00000-0  39023-4 0  9991,2 50804  53.2160 276.0591 0001300  91.4003 268.7138 15.08844465117657,6917.867,95.437,540.631,538.832,0.0
50804.0,STARLINK-3323,PAYLOAD,2024-02-21 07:15:09,15.08845846,0.0001329,53.2166,274.2758,91.5947,268.5198,5.6018e-06,-1.99e-06,0.0,0 STARLINK-3323,1 50804U 22001B   24052.30219718 -.00000199  00000-0  56018-5 0  9991,2 50804  53.2166 274.2758 0001329  91.5947 268.5198 15.08845846118960,6917.863,95.437,540.647,538.808,0.0
50804.0,STARLINK-3323,PAYLOAD,2024-02-21 15:12:06,15.08830624,0.0001436,53.2175,272.7906,92.5705,267.5451,0.00011559,1.552e-05,0.0,0 STARLINK-3323,1 50804U 22001B   24052.63340592  .00001552  00000-0  11559-3 0  9994,2 50804  53.2175 272.7906 0001436  92.5705 267.5451 15.08830624117766,6917.909,95.438,540.767,538.781,0.0
50804.0,STARLINK-3323,PAYLOAD,2024-02-21 19:58:15,15.08831854,0.0001399,53.2174,271.8989,92.3382,267.777,0.00012379,1.682e-05,0.0,0 STARLINK-3323,1 50804U 22001B   24052.83212553  .00001682  00000-0  12379-3 0  9996,2 50804  53.2174 271.8989 0001399  92.3382 267.7770 15.08831854119048,6917.905,95.438,540.738,538.802,0.0
50804.0,STARLINK-3323,PAYLOAD,2024-02-21 21:33:38,15.0883195,0.0001262,53.2174,271.6002,97.9898,262.1237,0.00012933,1.771e-05,0.0,0 STARLINK-3323,1 50804U 22001B   24052.89836485  .00001771  00000-0  12933-3 0  9993,2 50804  53.2174 271.6002 0001262  97.9898 262.1237 15.08831950117800,6917.905,95.438,540.643,538.897,0.0
